start=new Date('2021-08-29T00:00:00.000Z').valueOf();
sats=[{"OBJECT_NAME":"STARLINK-2660","REV_AT_EPOCH":"359","CENTER_NAME":"EARTH","GP_ID":"183640099","CLASSIFICATION_TYPE":"U","RA_OF_ASC_NODE":"45.6795","SEMIMAJOR_AXIS":"6925.399","COUNTRY_CODE":"US","MEAN_ELEMENT_THEORY":"SGP4","OBJECT_ID":"2021-040Y","REF_FRAME":"TEME","OBJECT_TYPE":"PAYLOAD","INCLINATION":"53.0535","TLE_LINE1":"1 48450U 21040Y   21240.91667824  .00048992  00000-0  32866-2 0  9999","SITE":"AFETR","PERIAPSIS":"546.271","FILE":"3104555","PERIOD":"95.593","RCS_SIZE":"LARGE","MEAN_MOTION_DOT":"0.00048992","ELEMENT_SET_NO":"999","MEAN_ANOMALY":"85.4319","TLE_LINE2":"2 48450  53.0535  45.6795 0001434  85.1580  85.4319 15.06383577  3591","ARG_OF_PERICENTER":"85.1580","LAUNCH_DATE":"2021-05-09","NORAD_CAT_ID":"48450","MEAN_MOTION_DDOT":"0.0000000000000","ECCENTRICITY":"0.00014340","BSTAR":"0.00328660000000","DECAY_DATE":null,"APOAPSIS":"548.257","EPHEMERIS_TYPE":"0","TIME_SYSTEM":"UTC","EPOCH":"2021-08-28T22:00:00.999936","MEAN_MOTION":"15.06383577"},{"MEAN_ANOMALY":"105.4783","TLE_LINE2":"2 48451  53.0541  45.6805 0001447  85.1333 105.4783 15.06401787  3593","FILE":"3104555","PERIOD":"95.592","RCS_SIZE":"LARGE","MEAN_MOTION_DOT":"0.00015205","ELEMENT_SET_NO":"999","ECCENTRICITY":"0.00014470","MEAN_MOTION_DDOT":"0.0000000000000","BSTAR":"0.00103740000000","DECAY_DATE":null,"APOAPSIS":"548.210","EPHEMERIS_TYPE":"0","TIME_SYSTEM":"UTC","EPOCH":"2021-08-28T22:00:00.999936","MEAN_MOTION":"15.06401787","ARG_OF_PERICENTER":"85.1333","LAUNCH_DATE":"2021-05-09","NORAD_CAT_ID":"48451","RA_OF_ASC_NODE":"45.6805","SEMIMAJOR_AXIS":"6925.343","COUNTRY_CODE":"US","REV_AT_EPOCH":"359","OBJECT_NAME":"STARLINK-2652","CENTER_NAME":"EARTH","GP_ID":"183639669","CLASSIFICATION_TYPE":"U","OBJECT_TYPE":"PAYLOAD","INCLINATION":"53.0541","SITE":"AFETR","TLE_LINE1":"1 48451U 21040Z   21240.91667824  .00015205  00000-0  10374-2 0  9991","PERIAPSIS":"546.206","MEAN_ELEMENT_THEORY":"SGP4","OBJECT_ID":"2021-040Z","REF_FRAME":"TEME"},{"RA_OF_ASC_NODE":"45.6796","COUNTRY_CODE":"US","SEMIMAJOR_AXIS":"6925.405","CENTER_NAME":"EARTH","REV_AT_EPOCH":"359","OBJECT_NAME":"STARLINK-2703","GP_ID":"183639487","CLASSIFICATION_TYPE":"U","OBJECT_TYPE":"PAYLOAD","INCLINATION":"53.0536","SITE":"AFETR","TLE_LINE1":"1 48452U 21040AA  21240.91667824  .00049207  00000-0  33010-2 0  9993","PERIAPSIS":"546.239","MEAN_ELEMENT_THEORY":"SGP4","OBJECT_ID":"2021-040AA","REF_FRAME":"TEME","MEAN_ANOMALY":"83.5669","TLE_LINE2":"2 48452  53.0536  45.6796 0001489  92.1383  83.5669 15.06381599  3593","FILE":"3104555","PERIOD":"95.593","RCS_SIZE":"LARGE","MEAN_MOTION_DOT":"0.00049207","ELEMENT_SET_NO":"999","MEAN_MOTION_DDOT":"0.0000000000000","ECCENTRICITY":"0.00014890","BSTAR":"0.00330100000000","DECAY_DATE":null,"APOAPSIS":"548.301","TIME_SYSTEM":"UTC","EPHEMERIS_TYPE":"0","EPOCH":"2021-08-28T22:00:00.999936","MEAN_MOTION":"15.06381599","ARG_OF_PERICENTER":"92.1383","LAUNCH_DATE":"2021-05-09","NORAD_CAT_ID":"48452"},{"OBJECT_TYPE":"PAYLOAD","INCLINATION":"53.0549","SITE":"AFETR","TLE_LINE1":"1 48453U 21040AB  21240.91667824  .00048746  00000-0  32708-2 0  9994","PERIAPSIS":"546.225","MEAN_ELEMENT_THEORY":"SGP4","OBJECT_ID":"2021-040AB","REF_FRAME":"TEME","RA_OF_ASC_NODE":"45.6815","SEMIMAJOR_AXIS":"6925.417","COUNTRY_CODE":"US","REV_AT_EPOCH":"359","CENTER_NAME":"EARTH","OBJECT_NAME":"STARLINK-2620","GP_ID":"183639921","CLASSIFICATION_TYPE":"U","MEAN_MOTION_DDOT":"0.0000000000000","ECCENTRICITY":"0.00015250","BSTAR":"0.00327080000000","DECAY_DATE":null,"EPHEMERIS_TYPE":"0","APOAPSIS":"548.338","TIME_SYSTEM":"UTC","EPOCH":"2021-08-28T22:00:00.999936","MEAN_MOTION":"15.06377819","ARG_OF_PERICENTER":"89.2274","LAUNCH_DATE":"2021-05-09","NORAD_CAT_ID":"48453","MEAN_ANOMALY":"121.3715","TLE_LINE2":"2 48453  53.0549  45.6815 0001525  89.2274 121.3715 15.06377819  3590","FILE":"3104555","PERIOD":"95.594","RCS_SIZE":"LARGE","MEAN_MOTION_DOT":"0.00048746","ELEMENT_SET_NO":"999"},{"ARG_OF_PERICENTER":"81.9750","LAUNCH_DATE":"2021-05-09","NORAD_CAT_ID":"48454","ECCENTRICITY":"0.00015190","MEAN_MOTION_DDOT":"0.0000000000000","BSTAR":"0.00048918000000","DECAY_DATE":null,"TIME_SYSTEM":"UTC","APOAPSIS":"548.270","EPHEMERIS_TYPE":"0","EPOCH":"2021-08-28T22:00:00.999936","MEAN_MOTION":"15.06398379","FILE":"3104555","RCS_SIZE":"LARGE","PERIOD":"95.592","MEAN_MOTION_DOT":"0.00007012","ELEMENT_SET_NO":"999","MEAN_ANOMALY":"148.6057","TLE_LINE2":"2 48454  53.0537  45.6792 0001519  81.9750 148.6057 15.06398379  3598","MEAN_ELEMENT_THEORY":"SGP4","OBJECT_ID":"2021-040AC","REF_FRAME":"TEME","OBJECT_TYPE":"PAYLOAD","INCLINATION":"53.0537","TLE_LINE1":"1 48454U 21040AC  21240.91667824  .00007012  00000-0  48918-3 0  9997","SITE":"AFETR","PERIAPSIS":"546.167","OBJECT_NAME":"STARLINK-2654","REV_AT_EPOCH":"359","CENTER_NAME":"EARTH","GP_ID":"183639759","CLASSIFICATION_TYPE":"U","RA_OF_ASC_NODE":"45.6792","SEMIMAJOR_AXIS":"6925.354","COUNTRY_CODE":"US"},{"COUNTRY_CODE":"US","SEMIMAJOR_AXIS":"6925.436","RA_OF_ASC_NODE":"45.7054","GP_ID":"183640010","CLASSIFICATION_TYPE":"U","REV_AT_EPOCH":"359","CENTER_NAME":"EARTH","OBJECT_NAME":"STARLINK-2497","INCLINATION":"53.0520","TLE_LINE1":"1 48455U 21040AD  21240.91667824  .00049555  00000-0  33250-2 0  9998","SITE":"AFETR","PERIAPSIS":"546.419","OBJECT_TYPE":"PAYLOAD","REF_FRAME":"TEME","MEAN_ELEMENT_THEORY":"SGP4","OBJECT_ID":"2021-040AD","TLE_LINE2":"2 48455  53.0520  45.7054 0001274  95.6854 154.9080 15.06371475  3592","MEAN_ANOMALY":"154.9080","MEAN_MOTION_DOT":"0.00049555","ELEMENT_SET_NO":"999","FILE":"3104555","PERIOD":"95.594","RCS_SIZE":"LARGE","DECAY_DATE":null,"EPHEMERIS_TYPE":"0","APOAPSIS":"548.183","TIME_SYSTEM":"UTC","EPOCH":"2021-08-28T22:00:00.999936","MEAN_MOTION":"15.06371475","ECCENTRICITY":"0.00012740","MEAN_MOTION_DDOT":"0.0000000000000","BSTAR":"0.00332500000000","NORAD_CAT_ID":"48455","ARG_OF_PERICENTER":"95.6854","LAUNCH_DATE":"2021-05-09"},{"MEAN_ELEMENT_THEORY":"SGP4","OBJECT_ID":"2021-040AE","REF_FRAME":"TEME","OBJECT_TYPE":"PAYLOAD","INCLINATION":"53.0543","SITE":"AFETR","TLE_LINE1":"1 48456U 21040AE  21240.91667824  .00040394  00000-0  27158-2 0  9991","PERIAPSIS":"546.152","REV_AT_EPOCH":"359","CENTER_NAME":"EARTH","OBJECT_NAME":"STARLINK-2508","CLASSIFICATION_TYPE":"U","GP_ID":"183639828","RA_OF_ASC_NODE":"45.6949","COUNTRY_CODE":"US","SEMIMAJOR_AXIS":"6925.372","ARG_OF_PERICENTER":"97.5323","LAUNCH_DATE":"2021-05-09","NORAD_CAT_ID":"48456","MEAN_MOTION_DDOT":"0.0000000000000","ECCENTRICITY":"0.00015670","BSTAR":"0.00271580000000","DECAY_DATE":null,"APOAPSIS":"548.322","EPHEMERIS_TYPE":"0","TIME_SYSTEM":"UTC","EPOCH":"2021-08-28T22:00:00.999936","MEAN_MOTION":"15.06392306","FILE":"3104555","PERIOD":"95.593","RCS_SIZE":"LARGE","MEAN_MOTION_DOT":"0.00040394","ELEMENT_SET_NO":"999","MEAN_ANOMALY":"173.0671","TLE_LINE2":"2 48456  53.0543  45.6949 0001567  97.5323 173.0671 15.06392306  3591"},{"INCLINATION":"53.0513","PERIAPSIS":"546.097","SITE":"AFETR","TLE_LINE1":"1 48458U 21040AG  21240.91667824  .00049761  00000-0  33389-2 0  9993","OBJECT_TYPE":"PAYLOAD","REF_FRAME":"TEME","MEAN_ELEMENT_THEORY":"SGP4","OBJECT_ID":"2021-040AG","COUNTRY_CODE":"US","SEMIMAJOR_AXIS":"6925.447","RA_OF_ASC_NODE":"50.6867","CLASSIFICATION_TYPE":"U","GP_ID":"183639581","CENTER_NAME":"EARTH","REV_AT_EPOCH":"359","OBJECT_NAME":"STARLINK-2698","TIME_SYSTEM":"UTC","APOAPSIS":"548.527","EPHEMERIS_TYPE":"0","DECAY_DATE":null,"MEAN_MOTION":"15.06367903","EPOCH":"2021-08-28T22:00:00.999936","MEAN_MOTION_DDOT":"0.0000000000000","ECCENTRICITY":"0.00017540","BSTAR":"0.00333890000000","NORAD_CAT_ID":"48458","ARG_OF_PERICENTER":"84.0156","LAUNCH_DATE":"2021-05-09","TLE_LINE2":"2 48458  53.0513  50.6867 0001754  84.0156 164.2121 15.06367903  3595","MEAN_ANOMALY":"164.2121","MEAN_MOTION_DOT":"0.00049761","ELEMENT_SET_NO":"999","FILE":"3104555","PERIOD":"95.594","RCS_SIZE":"LARGE"},{"DECAY_DATE":null,"TIME_SYSTEM":"UTC","APOAPSIS":"548.546","EPHEMERIS_TYPE":"0","EPOCH":"2021-08-28T22:00:00.999936","MEAN_MOTION":"15.06378688","MEAN_MOTION_DDOT":"0.0000000000000","ECCENTRICITY":"0.00018300","BSTAR":"0.00301620000000","NORAD_CAT_ID":"48459","ARG_OF_PERICENTER":"110.3507","LAUNCH_DATE":"2021-05-09","TLE_LINE2":"2 48459  53.0555  50.6843 0001830 110.3507 317.8509 15.06378688  3592","MEAN_ANOMALY":"317.8509","MEAN_MOTION_DOT":"0.00044906","ELEMENT_SET_NO":"999","FILE":"3104555","RCS_SIZE":"LARGE","PERIOD":"95.593","INCLINATION":"53.0555","TLE_LINE1":"1 48459U 21040AH  21240.91667824  .00044906  00000-0  30162-2 0  9996","SITE":"AFETR","PERIAPSIS":"546.012","OBJECT_TYPE":"PAYLOAD","REF_FRAME":"TEME","MEAN_ELEMENT_THEORY":"SGP4","OBJECT_ID":"2021-040AH","COUNTRY_CODE":"US","SEMIMAJOR_AXIS":"6925.414","RA_OF_ASC_NODE":"50.6843","GP_ID":"183640100","CLASSIFICATION_TYPE":"U","REV_AT_EPOCH":"359","CENTER_NAME":"EARTH","OBJECT_NAME":"STARLINK-2579"},{"OBJECT_TYPE":"PAYLOAD","PERIAPSIS":"546.064","SITE":"AFETR","TLE_LINE1":"1 48460U 21040AJ  21240.91667824  .00050441  00000-0  33836-2 0  9990","INCLINATION":"53.0554","OBJECT_ID":"2021-040AJ","MEAN_ELEMENT_THEORY":"SGP4","REF_FRAME":"TEME","RA_OF_ASC_NODE":"50.6832","COUNTRY_CODE":"US","SEMIMAJOR_AXIS":"6925.434","REV_AT_EPOCH":"359","CENTER_NAME":"EARTH","OBJECT_NAME":"STARLINK-2582","GP_ID":"183639670","CLASSIFICATION_TYPE":"U","BSTAR":"0.00338360000000","ECCENTRICITY":"0.00017840","MEAN_MOTION_DDOT":"0.0000000000000","MEAN_MOTION":"15.06372078","EPOCH":"2021-08-28T22:00:00.999936","EPHEMERIS_TYPE":"0","APOAPSIS":"548.535","TIME_SYSTEM":"UTC","DECAY_DATE":null,"LAUNCH_DATE":"2021-05-09","ARG_OF_PERICENTER":"106.9045","NORAD_CAT_ID":"48460","MEAN_ANOMALY":"36.1767","TLE_LINE2":"2 48460  53.0554  50.6832 0001784 106.9045  36.1767 15.06372078  3591","PERIOD":"95.594","RCS_SIZE":"LARGE","FILE":"3104555","ELEMENT_SET_NO":"999","MEAN_MOTION_DOT":"0.00050441"}];
